*******************************************************************************
JPL/HORIZONS                4666 Dietz (1986 JA1)          2023-Sep-05 05:37:40
Rec #:    4666 (+COV) Soln.date: 2023-Aug-23_20:21:18   # obs: 3001 (1986-2023)
 
IAU76/J2000 helio. ecliptic osc. elements (au, days, deg., period=Julian yrs):
 
  EPOCH=  2457948.5 ! 2017-Jul-14.00 (TDB)         Residual RMS= .24125
   EC= .2336869193618251   QR= 1.793001117792329   TP= 2458374.2856206582
   OM= 230.2278909280198   W=  42.032413237298     IN= 24.49809011374758
   A= 2.339776213005711    MA= 242.7444029609554   ADIST= 2.886551308219093
   PER= 3.57907            N= .275386465           ANGMOM= .025584339
   DAN= 1.88484            DDN= 2.67659            L= 269.5891621
   B= 16.1192794           MOID= .82747501         TP= 2018-Sep-12.7856206582
 
Asteroid physical parameters (km, seconds, rotational period in hours):
   GM= n.a.                RAD= 3.4135             ROTPER= 2.95242
   H= 12.98                G= .150                 B-V= n.a.
                           ALBEDO= .239            STYP= n.a.

ASTEROID comments: 
1: soln ref.= JPL#42, OCC=0
2: source=ORB
*******************************************************************************


*******************************************************************************
Ephemeris / API_USER Tue Sep  5 05:37:41 2023 Pasadena, USA      / Horizons
*******************************************************************************
Target body name: 4666 Dietz (1986 JA1)           {source: JPL#42}
Center body name: Solar System Barycenter (0)     {source: DE441}
Center-site name: BODY CENTER
*******************************************************************************
Start time      : A.D. 2023-Aug-12 00:00:00.0000 TDB
Stop  time      : A.D. 2023-Aug-13 00:00:00.0000 TDB
Step-size       : 2880 minutes
*******************************************************************************
Center geodetic : 0.0, 0.0, 0.0                   {E-lon(deg),Lat(deg),Alt(km)}
Center cylindric: 0.0, 0.0, 0.0                   {E-lon(deg),Dxy(km),Dz(km)}
Center radii    : (undefined)
Small perturbers: Yes                             {source: SB441-N16}
Output units    : KM-S
Calendar mode   : Mixed Julian/Gregorian
Output type     : GEOMETRIC cartesian states
Output format   : 2 (position and velocity)
Reference frame : Ecliptic of J2000.0
*******************************************************************************
Initial IAU76/J2000 heliocentric ecliptic osculating elements (au, days, deg.):
  EPOCH=  2457948.5 ! 2017-Jul-14.00 (TDB)         Residual RMS= .24125        
   EC= .2336869193618251   QR= 1.793001117792329   TP= 2458374.2856206582      
   OM= 230.2278909280198   W=  42.032413237298     IN= 24.49809011374758       
  Equivalent ICRF heliocentric cartesian coordinates (au, au/d):
   X=-1.689449955177516E+00  Y= 2.050235567340888E+00  Z=-3.140332297373770E-01
  VX=-5.613249870086679E-03 VY=-7.429152782020914E-03 VZ=-2.839151261266123E-03
Asteroid physical parameters (km, seconds, rotational period in hours):        
   GM= n.a.                RAD= 3.4135             ROTPER= 2.95242             
   H= 12.98                G= .150                 B-V= n.a.                   
                           ALBEDO= .239            STYP= n.a.                  
*******************************************************************************
JDTDB
   X     Y     Z
   VX    VY    VZ
*******************************************************************************
$$SOE
2460168.500000000 = A.D. 2023-Aug-12 00:00:00.0000 TDB 
 X = 1.997441808609509E+08 Y = 3.606772102837007E+08 Z =-3.497207965920801E+07
 VX=-1.186246122957455E+01 VY= 8.671147426393292E+00 VZ=-6.692976325127945E+00
$$EOE
*******************************************************************************
 
TIME

  Barycentric Dynamical Time ("TDB" or T_eph) output was requested. This
continuous coordinate time is equivalent to the relativistic proper time
of a clock at rest in a reference frame co-moving with the solar system
barycenter but outside the system's gravity well. It is the independent
variable in the solar system relativistic equations of motion.

  TDB runs at a uniform rate of one SI second per second and is independent
of irregularities in Earth's rotation.
 
CALENDAR SYSTEM

  Mixed calendar mode was active such that calendar dates after AD 1582-Oct-15
(if any) are in the modern Gregorian system. Dates prior to 1582-Oct-5 (if any)
are in the Julian calendar system, which is automatically extended for dates
prior to its adoption on 45-Jan-1 BC.  The Julian calendar is useful for
matching historical dates. The Gregorian calendar more accurately corresponds
to the Earth's orbital motion and seasons. A "Gregorian-only" calendar mode is
available if such physical events are the primary interest.

REFERENCE FRAME AND COORDINATES

  Ecliptic at the standard reference epoch

    Reference epoch: J2000.0
    X-Y plane: adopted Earth orbital plane at the reference epoch
               Note: IAU76 obliquity of 84381.448 arcseconds wrt ICRF X-Y plane
    X-axis   : ICRF
    Z-axis   : perpendicular to the X-Y plane in the directional (+ or -) sense
               of Earth's north pole at the reference epoch.

  Symbol meaning:

    JDTDB    Julian Day Number, Barycentric Dynamical Time
      X      X-component of position vector (km)
      Y      Y-component of position vector (km)
      Z      Z-component of position vector (km)
      VX     X-component of velocity vector (km/sec)                           
      VY     Y-component of velocity vector (km/sec)                           
      VZ     Z-component of velocity vector (km/sec)                           

ABERRATIONS AND CORRECTIONS

 Geometric state vectors have NO corrections or aberrations applied.

Computations by ...

    Solar System Dynamics Group, Horizons On-Line Ephemeris System
    4800 Oak Grove Drive, Jet Propulsion Laboratory
    Pasadena, CA  91109   USA

    General site: https://ssd.jpl.nasa.gov/
    Mailing list: https://ssd.jpl.nasa.gov/email_list.html
    System news : https://ssd.jpl.nasa.gov/horizons/news.html
    User Guide  : https://ssd.jpl.nasa.gov/horizons/manual.html
    Connect     : browser        https://ssd.jpl.nasa.gov/horizons/app.html#/x
                  API            https://ssd-api.jpl.nasa.gov/doc/horizons.html
                  command-line   telnet ssd.jpl.nasa.gov 6775
                  e-mail/batch   https://ssd.jpl.nasa.gov/ftp/ssd/hrzn_batch.txt
                  scripts        https://ssd.jpl.nasa.gov/ftp/ssd/SCRIPTS
    Author      : Jon.D.Giorgini@jpl.nasa.gov
*******************************************************************************
